start=new Date('2021-10-15T00:00:00.000Z').valueOf();
sats=[{"MEAN_MOTION_DDOT":"0.0000000000000","ELEMENT_SET_NO":"999","TLE_LINE2":"2 44238  52.9943 165.0551 0001871  93.6315 266.4892 15.17561489130730","RA_OF_ASC_NODE":"165.0551","PERIOD":"94.889","INCLINATION":"52.9943","OBJECT_ID":"2019-029D","GP_ID":"187137043","MEAN_MOTION":"15.17561489","EPHEMERIS_TYPE":"0","EPOCH":"2021-10-14T09:38:24.064224","APOAPSIS":"514.504","ECCENTRICITY":"0.00018710","RCS_SIZE":"LARGE","TLE_LINE1":"1 44238U 19029D   21287.40166741  .00009464  00000-0  48049-3 0  9992","MEAN_MOTION_DOT":"0.00009464","REV_AT_EPOCH":"13073","PERIAPSIS":"511.926","OBJECT_TYPE":"PAYLOAD","BSTAR":"0.00048049000000","FILE":"3161855","SITE":"AFETR","CENTER_NAME":"EARTH","MEAN_ELEMENT_THEORY":"SGP4","CLASSIFICATION_TYPE":"U","REF_FRAME":"TEME","LAUNCH_DATE":"2019-05-24","COUNTRY_CODE":"US","NORAD_CAT_ID":"44238","DECAY_DATE":null,"ARG_OF_PERICENTER":"93.6315","SEMIMAJOR_AXIS":"6891.350","TIME_SYSTEM":"UTC","OBJECT_NAME":"STARLINK-24","MEAN_ANOMALY":"266.4892"},{"OBJECT_NAME":"STARLINK-61","MEAN_ANOMALY":"267.6671","TIME_SYSTEM":"UTC","ARG_OF_PERICENTER":"92.5148","DECAY_DATE":null,"COUNTRY_CODE":"US","LAUNCH_DATE":"2019-05-24","NORAD_CAT_ID":"44249","SEMIMAJOR_AXIS":"6874.609","CENTER_NAME":"EARTH","MEAN_ELEMENT_THEORY":"SGP4","FILE":"3163138","BSTAR":"0.00034469000000","SITE":"AFETR","REF_FRAME":"TEME","CLASSIFICATION_TYPE":"U","OBJECT_TYPE":"PAYLOAD","PERIAPSIS":"491.529","MEAN_MOTION_DOT":"0.00007914","REV_AT_EPOCH":"13191","ECCENTRICITY":"0.00071930","RCS_SIZE":"LARGE","TLE_LINE1":"1 44249U 19029Q   21287.83049518  .00007914  00000-0  34469-3 0  9992","EPOCH":"2021-10-14T19:55:54.783552","APOAPSIS":"501.419","GP_ID":"187188155","MEAN_MOTION":"15.23108206","OBJECT_ID":"2019-029Q","EPHEMERIS_TYPE":"0","INCLINATION":"52.9884","PERIOD":"94.544","TLE_LINE2":"2 44249  52.9884 133.0262 0007193  92.5148 267.6671 15.23108206131915","RA_OF_ASC_NODE":"133.0262","ELEMENT_SET_NO":"999","MEAN_MOTION_DDOT":"0.0000000000000"},{"TLE_LINE1":"1 44252U 19029T   21286.95125272  .00012509  00000-0  59127-3 0  9994","RCS_SIZE":"LARGE","ECCENTRICITY":"0.00014770","EPHEMERIS_TYPE":"0","OBJECT_ID":"2019-029T","GP_ID":"187135542","MEAN_MOTION":"15.19768634","APOAPSIS":"507.558","EPOCH":"2021-10-13T22:49:48.235008","TLE_LINE2":"2 44252  52.9988 167.1683 0001477 101.0627 259.0533 15.19768634131303","RA_OF_ASC_NODE":"167.1683","PERIOD":"94.751","INCLINATION":"52.9988","MEAN_MOTION_DDOT":"0.0000000000000","ELEMENT_SET_NO":"999","TIME_SYSTEM":"UTC","MEAN_ANOMALY":"259.0533","OBJECT_NAME":"STARLINK-71","CLASSIFICATION_TYPE":"U","REF_FRAME":"TEME","FILE":"3161855","SITE":"AFETR","BSTAR":"0.00059127000000","MEAN_ELEMENT_THEORY":"SGP4","CENTER_NAME":"EARTH","SEMIMAJOR_AXIS":"6884.676","LAUNCH_DATE":"2019-05-24","NORAD_CAT_ID":"44252","COUNTRY_CODE":"US","DECAY_DATE":null,"ARG_OF_PERICENTER":"101.0627","OBJECT_TYPE":"PAYLOAD","REV_AT_EPOCH":"13130","MEAN_MOTION_DOT":"0.00012509","PERIAPSIS":"505.524"},{"TIME_SYSTEM":"UTC","OBJECT_NAME":"STARLINK-43","MEAN_ANOMALY":"9.0642","MEAN_ELEMENT_THEORY":"SGP4","CENTER_NAME":"EARTH","FILE":"3163138","SITE":"AFETR","BSTAR":"0.00124020000000","CLASSIFICATION_TYPE":"U","REF_FRAME":"TEME","DECAY_DATE":null,"ARG_OF_PERICENTER":"351.0294","LAUNCH_DATE":"2019-05-24","NORAD_CAT_ID":"44257","COUNTRY_CODE":"US","SEMIMAJOR_AXIS":"6785.504","OBJECT_TYPE":"PAYLOAD","MEAN_MOTION_DOT":"0.00079642","REV_AT_EPOCH":"13347","PERIAPSIS":"404.659","ECCENTRICITY":"0.00039940","RCS_SIZE":"LARGE","TLE_LINE1":"1 44257U 19029Y   21287.62982169  .00079642  00000-0  12402-2 0  9995","MEAN_MOTION":"15.53207835","GP_ID":"187187154","OBJECT_ID":"2019-029Y","EPHEMERIS_TYPE":"0","EPOCH":"2021-10-14T15:06:56.594016","APOAPSIS":"410.079","TLE_LINE2":"2 44257  52.9975  29.3637 0003994 351.0294   9.0642 15.53207835133478","RA_OF_ASC_NODE":"29.3637","INCLINATION":"52.9975","PERIOD":"92.711","ELEMENT_SET_NO":"999","MEAN_MOTION_DDOT":"0.0000000000000"},{"TIME_SYSTEM":"UTC","MEAN_ANOMALY":"53.7103","OBJECT_NAME":"STARLINK-80","CLASSIFICATION_TYPE":"U","REF_FRAME":"TEME","SITE":"AFETR","FILE":"3163138","BSTAR":"0.00078487000000","MEAN_ELEMENT_THEORY":"SGP4","CENTER_NAME":"EARTH","SEMIMAJOR_AXIS":"6837.328","COUNTRY_CODE":"US","LAUNCH_DATE":"2019-05-24","NORAD_CAT_ID":"44282","ARG_OF_PERICENTER":"306.3661","DECAY_DATE":null,"OBJECT_TYPE":"PAYLOAD","REV_AT_EPOCH":"13213","MEAN_MOTION_DOT":"0.00027260","PERIAPSIS":"457.435","RCS_SIZE":"LARGE","TLE_LINE1":"1 44282U 19029AZ  21287.74655324  .00027260  00000-0  78487-3 0  9991","ECCENTRICITY":"0.00025700","EPHEMERIS_TYPE":"0","OBJECT_ID":"2019-029AZ","MEAN_MOTION":"15.35582589","GP_ID":"187187404","APOAPSIS":"460.950","EPOCH":"2021-10-14T17:55:02.199936","RA_OF_ASC_NODE":"79.6402","TLE_LINE2":"2 44282  53.0193  79.6402 0002570 306.3661  53.7103 15.35582589132130","PERIOD":"93.775","INCLINATION":"53.0193","MEAN_MOTION_DDOT":"0.0000000000000","ELEMENT_SET_NO":"999"},{"RA_OF_ASC_NODE":"201.7372","TLE_LINE2":"2 44713  53.0555 201.7372 0001876  67.0952 293.0235 15.06387587106671","PERIOD":"95.593","INCLINATION":"53.0555","ELEMENT_SET_NO":"999","MEAN_MOTION_DDOT":"0.0000000000000","TLE_LINE1":"1 44713U 19074A   21287.47229606 -.00002736  00000-0 -16487-3 0  9995","RCS_SIZE":"LARGE","ECCENTRICITY":"0.00018760","EPHEMERIS_TYPE":"0","GP_ID":"187148044","MEAN_MOTION":"15.06387587","OBJECT_ID":"2019-074A","APOAPSIS":"548.551","EPOCH":"2021-10-14T11:20:06.379584","OBJECT_TYPE":"PAYLOAD","REV_AT_EPOCH":"10667","MEAN_MOTION_DOT":"-0.00002736","PERIAPSIS":"545.952","TIME_SYSTEM":"UTC","MEAN_ANOMALY":"293.0235","OBJECT_NAME":"STARLINK-1007","CLASSIFICATION_TYPE":"U","REF_FRAME":"TEME","MEAN_ELEMENT_THEORY":"SGP4","CENTER_NAME":"EARTH","FILE":"3162203","SITE":"AFETR","BSTAR":"-0.00016487000000","SEMIMAJOR_AXIS":"6925.387","ARG_OF_PERICENTER":"67.0952","DECAY_DATE":null,"LAUNCH_DATE":"2019-11-11","NORAD_CAT_ID":"44713","COUNTRY_CODE":"US"},{"OBJECT_TYPE":"PAYLOAD","PERIAPSIS":"546.130","REV_AT_EPOCH":"10663","MEAN_MOTION_DOT":"-0.00001364","MEAN_ANOMALY":"283.2221","OBJECT_NAME":"STARLINK-1008","TIME_SYSTEM":"UTC","SEMIMAJOR_AXIS":"6925.386","DECAY_DATE":null,"ARG_OF_PERICENTER":"76.8949","COUNTRY_CODE":"US","LAUNCH_DATE":"2019-11-11","NORAD_CAT_ID":"44714","REF_FRAME":"TEME","CLASSIFICATION_TYPE":"U","MEAN_ELEMENT_THEORY":"SGP4","CENTER_NAME":"EARTH","BSTAR":"-0.00007270000000","FILE":"3162173","SITE":"AFETR","INCLINATION":"53.0549","PERIOD":"95.593","TLE_LINE2":"2 44714  53.0549 202.9885 0001619  76.8949 283.2221 15.06387752106632","RA_OF_ASC_NODE":"202.9885","ELEMENT_SET_NO":"999","MEAN_MOTION_DDOT":"0.0000000000000","RCS_SIZE":"LARGE","TLE_LINE1":"1 44714U 19074B   21287.18572889 -.00001364  00000-0 -72700-4 0  9995","ECCENTRICITY":"0.00016190","APOAPSIS":"548.372","EPOCH":"2021-10-14T04:27:26.976096","EPHEMERIS_TYPE":"0","MEAN_MOTION":"15.06387752","GP_ID":"187147499","OBJECT_ID":"2019-074B"},{"DECAY_DATE":null,"ARG_OF_PERICENTER":"68.3816","COUNTRY_CODE":"US","LAUNCH_DATE":"2019-11-11","NORAD_CAT_ID":"44715","SEMIMAJOR_AXIS":"6925.344","CENTER_NAME":"EARTH","MEAN_ELEMENT_THEORY":"SGP4","BSTAR":"-0.00008813900000","FILE":"3162173","SITE":"AFETR","CLASSIFICATION_TYPE":"U","REF_FRAME":"TEME","OBJECT_NAME":"STARLINK-1009","MEAN_ANOMALY":"291.7355","TIME_SYSTEM":"UTC","PERIAPSIS":"546.027","MEAN_MOTION_DOT":"-0.00001594","REV_AT_EPOCH":"10667","OBJECT_TYPE":"PAYLOAD","EPOCH":"2021-10-14T12:09:12.821760","APOAPSIS":"548.390","GP_ID":"187147001","MEAN_MOTION":"15.06401505","OBJECT_ID":"2019-074C","EPHEMERIS_TYPE":"0","ECCENTRICITY":"0.00017060","TLE_LINE1":"1 44715U 19074C   21287.50639840 -.00001594  00000-0 -88139-4 0  9991","RCS_SIZE":"LARGE","ELEMENT_SET_NO":"999","MEAN_MOTION_DDOT":"0.0000000000000","PERIOD":"95.592","INCLINATION":"53.0544","RA_OF_ASC_NODE":"201.5464","TLE_LINE2":"2 44715  53.0544 201.5464 0001706  68.3816 291.7355 15.06401505106671"},{"TLE_LINE2":"2 44716  53.0563 201.7513 0001690  72.9037 287.2137 15.06381524106652","RA_OF_ASC_NODE":"201.7513","PERIOD":"95.593","INCLINATION":"53.0563","ELEMENT_SET_NO":"999","MEAN_MOTION_DDOT":"0.0000000000000","RCS_SIZE":"LARGE","TLE_LINE1":"1 44716U 19074D   21287.45849511 -.00002651  00000-0 -15922-3 0  9998","ECCENTRICITY":"0.00016900","EPHEMERIS_TYPE":"0","GP_ID":"187150244","MEAN_MOTION":"15.06381524","OBJECT_ID":"2019-074D","APOAPSIS":"548.441","EPOCH":"2021-10-14T11:00:13.977504","OBJECT_TYPE":"PAYLOAD","REV_AT_EPOCH":"10665","MEAN_MOTION_DOT":"-0.00002651","PERIAPSIS":"546.100","TIME_SYSTEM":"UTC","MEAN_ANOMALY":"287.2137","OBJECT_NAME":"STARLINK-1010","CLASSIFICATION_TYPE":"U","REF_FRAME":"TEME","CENTER_NAME":"EARTH","MEAN_ELEMENT_THEORY":"SGP4","FILE":"3162284","SITE":"AFETR","BSTAR":"-0.00015922000000","SEMIMAJOR_AXIS":"6925.405","ARG_OF_PERICENTER":"72.9037","DECAY_DATE":null,"COUNTRY_CODE":"US","LAUNCH_DATE":"2019-11-11","NORAD_CAT_ID":"44716"},{"OBJECT_TYPE":"PAYLOAD","PERIAPSIS":"546.111","MEAN_MOTION_DOT":"-0.00000989","REV_AT_EPOCH":"10640","OBJECT_NAME":"STARLINK-1011","MEAN_ANOMALY":"290.9185","TIME_SYSTEM":"UTC","NORAD_CAT_ID":"44717","LAUNCH_DATE":"2019-11-11","COUNTRY_CODE":"US","DECAY_DATE":null,"ARG_OF_PERICENTER":"69.1980","SEMIMAJOR_AXIS":"6925.380","FILE":"3162307","SITE":"AFETR","BSTAR":"-0.00004753200000","MEAN_ELEMENT_THEORY":"SGP4","CENTER_NAME":"EARTH","CLASSIFICATION_TYPE":"U","REF_FRAME":"TEME","PERIOD":"95.593","INCLINATION":"53.0537","TLE_LINE2":"2 44717  53.0537 221.4677 0001638  69.1980 290.9185 15.06389663106400","RA_OF_ASC_NODE":"221.4677","MEAN_MOTION_DDOT":"0.0000000000000","ELEMENT_SET_NO":"999","ECCENTRICITY":"0.00016380","TLE_LINE1":"1 44717U 19074E   21287.52299445 -.00000989  00000-0 -47532-4 0  9997","RCS_SIZE":"LARGE","EPOCH":"2021-10-14T12:33:06.720480","APOAPSIS":"548.380","OBJECT_ID":"2019-074E","MEAN_MOTION":"15.06389663","GP_ID":"187150285","EPHEMERIS_TYPE":"0"}];
